36411,EWS-G2 (GOES 15),2010,1436.13,3175.0,B,0.31,Active,1,GSO,USA,USA,Government,Earth Observation,Delta,1 36411U 10008A   25158.58185591  .00000055  00000+0  00000+0 0  9995,2 36411   0.3077  85.6461 0001787 108.6627 332.7690  1.00269582 55886,1.00269582,0.0001787,GEO
41866,GOES 16,2016,1438.2,5192.0,+,0.05,Active,1,GSO,USA,USA,Government,Earth Observation,Atlas,1 41866U 16071A   25155.49096284 -.00000069  00000+0  00000+0 0  9994,2 41866   0.0473 255.3205 0001567 231.8484 199.0469  1.00125158 31311,1.00125158,0.0001567,GEO
43226,GOES 17,2018,1436.09,5211.0,B,0.01,Active,1,GSO,USA,USA,Government,Earth Observation,Atlas,1 43226U 18022A   25158.86850387 -.00000075  00000+0  00000+0 0  9997,2 43226   0.0116 262.0864 0003175 204.3630 358.3103  1.00271928 26684,1.00271928,0.0003175,GEO
51850,GOES 18,2022,1436.07,5209.0,+,0.03,Active,1,GSO,USA,USA,Government,Earth Observation,Atlas,1 51850U 22021A   25158.76823470  .00000114  00000+0  00000+0 0  9998,2 51850   0.0128  66.8686 0000408  55.5734 273.5282  1.00272518 12056,1.00272518,4.08e-05,GEO
60133,GOES 19,2024,1436.13,-1.0,+,0.02,Active,0,GSO,USA,USA,Unknown,Unknown,Unknown,1 60133U 24119A   25158.56631741 -.00000230  00000+0  00000+0 0  9998,2 60133   0.0200  79.0824 0000318  47.6398 258.1529  1.00269332  3209,1.00269332,3.18e-05,GEO
